{"fetched_at":"2026-07-14T17:40:25.184Z","source":"https://celestrak.org/NORAD/elements/gp.php?GROUP=planet&FORMAT=JSON","constellation":"skysat","records":[{"OBJECT_NAME":"SKYSAT-A","OBJECT_ID":"2013-066C","EPOCH":"2026-07-14T02:35:03.797376","CLASSIFICATION_TYPE":"U","MEAN_MOTION":15.13111799,"ECCENTRICITY":0.0020388,"INCLINATION":97.3804,"RA_OF_ASC_NODE":243.647,"ARG_OF_PERICENTER":217.4239,"MEAN_ANOMALY":142.5573,"EPHEMERIS_TYPE":0,"NORAD_CAT_ID":39418,"ELEMENT_SET_NO":999,"REV_AT_EPOCH":69255,"BSTAR":0.000089681,"MEAN_MOTION_DOT":0.00001531,"MEAN_MOTION_DDOT":0},{"OBJECT_NAME":"SKYSAT-B","OBJECT_ID":"2014-037D","EPOCH":"2026-07-13T21:18:06.166368","CLASSIFICATION_TYPE":"U","MEAN_MOTION":14.88090396,"ECCENTRICITY":0.0005461,"INCLINATION":98.3853,"RA_OF_ASC_NODE":155.3779,"ARG_OF_PERICENTER":176.6289,"MEAN_ANOMALY":183.4964,"EPHEMERIS_TYPE":0,"NORAD_CAT_ID":40072,"ELEMENT_SET_NO":999,"REV_AT_EPOCH":64993,"BSTAR":0.000074958,"MEAN_MOTION_DOT":0.00000628,"MEAN_MOTION_DDOT":0},{"OBJECT_NAME":"SKYSAT-C1","OBJECT_ID":"2016-040C","EPOCH":"2026-07-14T01:08:37.633056","CLASSIFICATION_TYPE":"U","MEAN_MOTION":15.36736009,"ECCENTRICITY":0.0000384,"INCLINATION":96.9552,"RA_OF_ASC_NODE":225.3167,"ARG_OF_PERICENTER":331.9804,"MEAN_ANOMALY":28.1421,"EPHEMERIS_TYPE":0,"NORAD_CAT_ID":41601,"ELEMENT_SET_NO":999,"REV_AT_EPOCH":56199,"BSTAR":0.00015569,"MEAN_MOTION_DOT":0.00005512,"MEAN_MOTION_DDOT":0},{"OBJECT_NAME":"SKYSAT-C4","OBJECT_ID":"2016-058B","EPOCH":"2026-07-14T00:17:17.577600","CLASSIFICATION_TYPE":"U","MEAN_MOTION":15.49411318,"ECCENTRICITY":0.0003445,"INCLINATION":96.9161,"RA_OF_ASC_NODE":215.6743,"ARG_OF_PERICENTER":119.5998,"MEAN_ANOMALY":240.5598,"EPHEMERIS_TYPE":0,"NORAD_CAT_ID":41771,"ELEMENT_SET_NO":999,"REV_AT_EPOCH":54962,"BSTAR":0.0001948,"MEAN_MOTION_DOT":0.0001061,"MEAN_MOTION_DDOT":0},{"OBJECT_NAME":"SKYSAT-C5","OBJECT_ID":"2016-058C","EPOCH":"2026-07-14T02:27:04.948704","CLASSIFICATION_TYPE":"U","MEAN_MOTION":15.33710003,"ECCENTRICITY":0.000244,"INCLINATION":97.0456,"RA_OF_ASC_NODE":234.5365,"ARG_OF_PERICENTER":163.7716,"MEAN_ANOMALY":196.3606,"EPHEMERIS_TYPE":0,"NORAD_CAT_ID":41772,"ELEMENT_SET_NO":999,"REV_AT_EPOCH":54787,"BSTAR":0.000139,"MEAN_MOTION_DOT":0.00004457,"MEAN_MOTION_DDOT":0},{"OBJECT_NAME":"SKYSAT-C2","OBJECT_ID":"2016-058D","EPOCH":"2026-07-14T01:17:32.919072","CLASSIFICATION_TYPE":"U","MEAN_MOTION":15.42663509,"ECCENTRICITY":0.0001653,"INCLINATION":97.0156,"RA_OF_ASC_NODE":216.1462,"ARG_OF_PERICENTER":357.8102,"MEAN_ANOMALY":2.3139,"EPHEMERIS_TYPE":0,"NORAD_CAT_ID":41773,"ELEMENT_SET_NO":999,"REV_AT_EPOCH":54919,"BSTAR":0.00017615,"MEAN_MOTION_DOT":0.00007595,"MEAN_MOTION_DDOT":0},{"OBJECT_NAME":"SKYSAT-C3","OBJECT_ID":"2016-058E","EPOCH":"2026-07-14T01:47:54.095424","CLASSIFICATION_TYPE":"U","MEAN_MOTION":15.53672542,"ECCENTRICITY":0.0002454,"INCLINATION":96.8994,"RA_OF_ASC_NODE":224.9052,"ARG_OF_PERICENTER":133.1367,"MEAN_ANOMALY":227.0093,"EPHEMERIS_TYPE":0,"NORAD_CAT_ID":41774,"ELEMENT_SET_NO":999,"REV_AT_EPOCH":55028,"BSTAR":0.00024332,"MEAN_MOTION_DOT":0.00015462,"MEAN_MOTION_DDOT":0},{"OBJECT_NAME":"SKYSAT-C11","OBJECT_ID":"2017-068A","EPOCH":"2026-07-13T22:59:56.056416","CLASSIFICATION_TYPE":"U","MEAN_MOTION":15.59277174,"ECCENTRICITY":0.0001109,"INCLINATION":97.4372,"RA_OF_ASC_NODE":344.9864,"ARG_OF_PERICENTER":159.636,"MEAN_ANOMALY":200.4941,"EPHEMERIS_TYPE":0,"NORAD_CAT_ID":42987,"ELEMENT_SET_NO":999,"REV_AT_EPOCH":48741,"BSTAR":0.00024812,"MEAN_MOTION_DOT":0.00019406,"MEAN_MOTION_DDOT":0},{"OBJECT_NAME":"SKYSAT-C10","OBJECT_ID":"2017-068B","EPOCH":"2026-07-13T21:23:57.839424","CLASSIFICATION_TYPE":"U","MEAN_MOTION":15.35100278,"ECCENTRICITY":0.0001433,"INCLINATION":97.4534,"RA_OF_ASC_NODE":332.0114,"ARG_OF_PERICENTER":109.2126,"MEAN_ANOMALY":250.9272,"EPHEMERIS_TYPE":0,"NORAD_CAT_ID":42988,"ELEMENT_SET_NO":999,"REV_AT_EPOCH":48645,"BSTAR":0.00018626,"MEAN_MOTION_DOT":0.00006262,"MEAN_MOTION_DDOT":0},{"OBJECT_NAME":"SKYSAT-C9","OBJECT_ID":"2017-068C","EPOCH":"2026-07-14T04:06:54.999360","CLASSIFICATION_TYPE":"U","MEAN_MOTION":15.42198035,"ECCENTRICITY":0.0008737,"INCLINATION":97.4453,"RA_OF_ASC_NODE":333.4906,"ARG_OF_PERICENTER":48.1105,"MEAN_ANOMALY":312.0886,"EPHEMERIS_TYPE":0,"NORAD_CAT_ID":42989,"ELEMENT_SET_NO":999,"REV_AT_EPOCH":48691,"BSTAR":0.00017827,"MEAN_MOTION_DOT":0.00007569,"MEAN_MOTION_DDOT":0},{"OBJECT_NAME":"SKYSAT-C8","OBJECT_ID":"2017-068D","EPOCH":"2026-07-14T03:32:12.323904","CLASSIFICATION_TYPE":"U","MEAN_MOTION":15.37478233,"ECCENTRICITY":0.000123,"INCLINATION":97.4552,"RA_OF_ASC_NODE":332.1736,"ARG_OF_PERICENTER":101.8864,"MEAN_ANOMALY":258.2518,"EPHEMERIS_TYPE":0,"NORAD_CAT_ID":42990,"ELEMENT_SET_NO":999,"REV_AT_EPOCH":48645,"BSTAR":0.00016968,"MEAN_MOTION_DOT":0.00006152,"MEAN_MOTION_DDOT":0},{"OBJECT_NAME":"SKYSAT-C7","OBJECT_ID":"2017-068E","EPOCH":"2026-07-13T21:09:19.204128","CLASSIFICATION_TYPE":"U","MEAN_MOTION":15.37426088,"ECCENTRICITY":0.0005816,"INCLINATION":97.4561,"RA_OF_ASC_NODE":332.8952,"ARG_OF_PERICENTER":25.8991,"MEAN_ANOMALY":334.2544,"EPHEMERIS_TYPE":0,"NORAD_CAT_ID":42991,"ELEMENT_SET_NO":999,"REV_AT_EPOCH":48647,"BSTAR":0.00017019,"MEAN_MOTION_DOT":0.00006163,"MEAN_MOTION_DDOT":0},{"OBJECT_NAME":"SKYSAT-C6","OBJECT_ID":"2017-068F","EPOCH":"2026-07-13T21:19:29.553600","CLASSIFICATION_TYPE":"U","MEAN_MOTION":15.34155822,"ECCENTRICITY":0.0005141,"INCLINATION":97.4599,"RA_OF_ASC_NODE":332.7619,"ARG_OF_PERICENTER":92.5482,"MEAN_ANOMALY":267.635,"EPHEMERIS_TYPE":0,"NORAD_CAT_ID":42992,"ELEMENT_SET_NO":999,"REV_AT_EPOCH":48641,"BSTAR":0.00016616,"MEAN_MOTION_DOT":0.00005412,"MEAN_MOTION_DDOT":0},{"OBJECT_NAME":"SKYSAT-C12","OBJECT_ID":"2018-099AR","EPOCH":"2026-07-14T03:45:02.509056","CLASSIFICATION_TYPE":"U","MEAN_MOTION":15.49763935,"ECCENTRICITY":0.0005418,"INCLINATION":96.9252,"RA_OF_ASC_NODE":217.3222,"ARG_OF_PERICENTER":72.6054,"MEAN_ANOMALY":287.579,"EPHEMERIS_TYPE":0,"NORAD_CAT_ID":43797,"ELEMENT_SET_NO":999,"REV_AT_EPOCH":42603,"BSTAR":0.00020295,"MEAN_MOTION_DOT":0.000112,"MEAN_MOTION_DDOT":0}]}
