SKYSAT-A                
1 39418U 13066C   26195.10768284  .00001531  00000+0  89681-4 0  9995
2 39418  97.3804 243.6470 0020388 217.4239 142.5573 15.13111799692555
SKYSAT-B                
1 40072U 14037D   26194.88757137  .00000628  00000+0  74958-4 0  9998
2 40072  98.3853 155.3779 0005461 176.6289 183.4964 14.88090396649937
SKYSAT-C1               
1 41601U 16040C   26195.04765779  .00005512  00000+0  15569-3 0  9992
2 41601  96.9552 225.3167 0000384 331.9804  28.1421 15.36736009561997
SKYSAT-C4               
1 41771U 16058B   26195.01200900  .00010610  00000+0  19480-3 0  9997
2 41771  96.9161 215.6743 0003445 119.5998 240.5598 15.49411318549626
SKYSAT-C5               
1 41772U 16058C   26195.10214061  .00004457  00000+0  13900-3 0  9994
2 41772  97.0456 234.5365 0002440 163.7716 196.3606 15.33710003547878
SKYSAT-C2               
1 41773U 16058D   26195.05385323  .00007595  00000+0  17615-3 0  9992
2 41773  97.0156 216.1462 0001653 357.8102   2.3139 15.42663509549192
SKYSAT-C3               
1 41774U 16058E   26195.07493166  .00015462  00000+0  24332-3 0  9996
2 41774  96.8994 224.9052 0002454 133.1367 227.0093 15.53672542550286
SKYSAT-C11              
1 42987U 17068A   26194.95828769  .00019406  00000+0  24812-3 0  9997
2 42987  97.4372 344.9864 0001109 159.6360 200.4941 15.59277174487415
SKYSAT-C10              
1 42988U 17068B   26194.89164166  .00006262  00000+0  18626-3 0  9997
2 42988  97.4534 332.0114 0001433 109.2126 250.9272 15.35100278486457
SKYSAT-C9               
1 42989U 17068C   26195.17146990  .00007569  00000+0  17827-3 0  9998
2 42989  97.4453 333.4906 0008737  48.1105 312.0886 15.42198035486912
SKYSAT-C8               
1 42990U 17068D   26195.14736486  .00006152  00000+0  16968-3 0  9994
2 42990  97.4552 332.1736 0001230 101.8864 258.2518 15.37478233486458
SKYSAT-C7               
1 42991U 17068E   26194.88147227  .00006163  00000+0  17019-3 0  9994
2 42991  97.4561 332.8952 0005816  25.8991 334.2544 15.37426088486473
SKYSAT-C6               
1 42992U 17068F   26194.88853650  .00005412  00000+0  16616-3 0  9997
2 42992  97.4599 332.7619 0005141  92.5482 267.6350 15.34155822486411
SKYSAT-C12              
1 43797U 18099AR  26195.15627904  .00011200  00000+0  20295-3 0  9998
2 43797  96.9252 217.3222 0005418  72.6054 287.5790 15.49763935426031
